start=new Date('2022-02-26T00:00:00.000Z').valueOf();
sats=[{"PERIAPSIS":"546.091","TLE_LINE2":"2 46573  53.0536 293.1558 0001626  66.0916 294.0243 15.06398799 77730","TLE_LINE1":"1 46573U 20070AT  22056.91465269  .00001777  00000-0  13820-3 0  9990","TIME_SYSTEM":"UTC","DECAY_DATE":null,"MEAN_ANOMALY":"294.0243","ARG_OF_PERICENTER":"66.0916","PERIOD":"95.592","CLASSIFICATION_TYPE":"U","SITE":"AFETR","REV_AT_EPOCH":"7773","COUNTRY_CODE":"US","EPHEMERIS_TYPE":"0","MEAN_MOTION":"15.06398799","BSTAR":"0.00013820000000","MEAN_ELEMENT_THEORY":"SGP4","OBJECT_TYPE":"PAYLOAD","CENTER_NAME":"EARTH","GP_ID":"197032025","OBJECT_ID":"2020-070AT","EPOCH":"2022-02-25T21:57:05.992416","SEMIMAJOR_AXIS":"6925.352","RCS_SIZE":"LARGE","INCLINATION":"53.0536","MEAN_MOTION_DOT":"0.00001777","MEAN_MOTION_DDOT":"0.0000000000000","APOAPSIS":"548.343","FILE":"3323947","ELEMENT_SET_NO":"999","ECCENTRICITY":"0.00016260","OBJECT_NAME":"STARLINK-1650","REF_FRAME":"TEME","LAUNCH_DATE":"2020-10-06","RA_OF_ASC_NODE":"293.1558","NORAD_CAT_ID":"46573"},{"PERIOD":"95.592","CLASSIFICATION_TYPE":"U","SITE":"AFETR","DECAY_DATE":null,"ARG_OF_PERICENTER":"76.9754","MEAN_ANOMALY":"283.1414","TIME_SYSTEM":"UTC","TLE_LINE2":"2 46574  53.0544 293.2329 0001606  76.9754 283.1414 15.06395277 77732","PERIAPSIS":"546.116","TLE_LINE1":"1 46574U 20070AU  22056.89990548 -.00000782  00000-0 -33615-4 0  9993","REF_FRAME":"TEME","ECCENTRICITY":"0.00016060","OBJECT_NAME":"STARLINK-1660","NORAD_CAT_ID":"46574","LAUNCH_DATE":"2020-10-06","RA_OF_ASC_NODE":"293.2329","MEAN_MOTION_DDOT":"0.0000000000000","SEMIMAJOR_AXIS":"6925.363","RCS_SIZE":"LARGE","MEAN_MOTION_DOT":"-0.00000782","INCLINATION":"53.0544","ELEMENT_SET_NO":"999","FILE":"3323947","APOAPSIS":"548.340","CENTER_NAME":"EARTH","OBJECT_ID":"2020-070AU","EPOCH":"2022-02-25T21:35:51.833472","GP_ID":"197032272","REV_AT_EPOCH":"7773","EPHEMERIS_TYPE":"0","COUNTRY_CODE":"US","BSTAR":"-0.00003361500000","MEAN_ELEMENT_THEORY":"SGP4","OBJECT_TYPE":"PAYLOAD","MEAN_MOTION":"15.06395277"},{"OBJECT_ID":"2020-070AV","EPOCH":"2022-02-25T21:20:36.481632","GP_ID":"196998664","CENTER_NAME":"EARTH","BSTAR":"-0.00000431160000","OBJECT_TYPE":"PAYLOAD","MEAN_ELEMENT_THEORY":"SGP4","MEAN_MOTION":"15.06388329","REV_AT_EPOCH":"7808","EPHEMERIS_TYPE":"0","COUNTRY_CODE":"US","NORAD_CAT_ID":"46575","LAUNCH_DATE":"2020-10-06","RA_OF_ASC_NODE":"268.2441","REF_FRAME":"TEME","ECCENTRICITY":"0.00014840","OBJECT_NAME":"STARLINK-1675","ELEMENT_SET_NO":"999","APOAPSIS":"548.277","FILE":"3323434","MEAN_MOTION_DDOT":"0.0000000000000","RCS_SIZE":"LARGE","SEMIMAJOR_AXIS":"6925.384","MEAN_MOTION_DOT":"-0.00000346","INCLINATION":"53.0535","TIME_SYSTEM":"UTC","TLE_LINE1":"1 46575U 20070AV  22056.88931113 -.00000346  00000-0 -43116-5 0  9990","TLE_LINE2":"2 46575  53.0535 268.2441 0001484  71.0907 289.0243 15.06388329 78084","PERIAPSIS":"546.222","CLASSIFICATION_TYPE":"U","SITE":"AFETR","PERIOD":"95.593","ARG_OF_PERICENTER":"71.0907","MEAN_ANOMALY":"289.0243","DECAY_DATE":null},{"TLE_LINE2":"2 46576  53.0544 293.2563 0002144  60.2211 299.8991 15.06321628 77739","PERIAPSIS":"545.969","TLE_LINE1":"1 46576U 20070AW  22056.89255214  .00015587  00000-0  10652-2 0  9990","TIME_SYSTEM":"UTC","DECAY_DATE":null,"ARG_OF_PERICENTER":"60.2211","MEAN_ANOMALY":"299.8991","PERIOD":"95.597","CLASSIFICATION_TYPE":"U","SITE":"AFETR","REV_AT_EPOCH":"7773","EPHEMERIS_TYPE":"0","COUNTRY_CODE":"US","BSTAR":"0.00106520000000","MEAN_ELEMENT_THEORY":"SGP4","OBJECT_TYPE":"PAYLOAD","MEAN_MOTION":"15.06321628","CENTER_NAME":"EARTH","OBJECT_ID":"2020-070AW","EPOCH":"2022-02-25T21:25:16.504896","GP_ID":"196999207","MEAN_MOTION_DDOT":"0.0000000000000","RCS_SIZE":"LARGE","SEMIMAJOR_AXIS":"6925.589","INCLINATION":"53.0544","MEAN_MOTION_DOT":"0.00015587","ELEMENT_SET_NO":"999","FILE":"3323438","APOAPSIS":"548.939","REF_FRAME":"TEME","ECCENTRICITY":"0.00021440","OBJECT_NAME":"STARLINK-1677","NORAD_CAT_ID":"46576","RA_OF_ASC_NODE":"293.2563","LAUNCH_DATE":"2020-10-06"},{"TLE_LINE1":"1 46577U 20070AX  22056.92202004  .00002472  00000-0  18481-3 0  9992","TLE_LINE2":"2 46577  53.0548 293.1378 0001545  70.4258 289.6897 15.06395220 77736","PERIAPSIS":"546.158","TIME_SYSTEM":"UTC","ARG_OF_PERICENTER":"70.4258","MEAN_ANOMALY":"289.6897","DECAY_DATE":null,"CLASSIFICATION_TYPE":"U","SITE":"AFETR","PERIOD":"95.592","BSTAR":"0.00018481000000","MEAN_ELEMENT_THEORY":"SGP4","OBJECT_TYPE":"PAYLOAD","MEAN_MOTION":"15.06395220","REV_AT_EPOCH":"7773","COUNTRY_CODE":"US","EPHEMERIS_TYPE":"0","OBJECT_ID":"2020-070AX","EPOCH":"2022-02-25T22:07:42.531456","GP_ID":"197031526","CENTER_NAME":"EARTH","ELEMENT_SET_NO":"999","APOAPSIS":"548.298","FILE":"3323947","MEAN_MOTION_DDOT":"0.0000000000000","SEMIMAJOR_AXIS":"6925.363","RCS_SIZE":"LARGE","MEAN_MOTION_DOT":"0.00002472","INCLINATION":"53.0548","NORAD_CAT_ID":"46577","RA_OF_ASC_NODE":"293.1378","LAUNCH_DATE":"2020-10-06","REF_FRAME":"TEME","ECCENTRICITY":"0.00015450","OBJECT_NAME":"STARLINK-1682"},{"TLE_LINE1":"1 46578U 20070AY  22056.89849766  .00000747  00000-0  69031-4 0  9992","PERIAPSIS":"546.072","TLE_LINE2":"2 46578  53.0546 278.2442 0001636  76.1418 283.9753 15.06402884 77949","TIME_SYSTEM":"UTC","MEAN_ANOMALY":"283.9753","ARG_OF_PERICENTER":"76.1418","DECAY_DATE":null,"CLASSIFICATION_TYPE":"U","SITE":"AFETR","PERIOD":"95.592","MEAN_MOTION":"15.06402884","BSTAR":"0.00006903100000","OBJECT_TYPE":"PAYLOAD","MEAN_ELEMENT_THEORY":"SGP4","REV_AT_EPOCH":"7794","COUNTRY_CODE":"US","EPHEMERIS_TYPE":"0","GP_ID":"197032772","OBJECT_ID":"2020-070AY","EPOCH":"2022-02-25T21:33:50.197824","CENTER_NAME":"EARTH","APOAPSIS":"548.338","FILE":"3323947","ELEMENT_SET_NO":"999","RCS_SIZE":"LARGE","SEMIMAJOR_AXIS":"6925.340","INCLINATION":"53.0546","MEAN_MOTION_DOT":"0.00000747","MEAN_MOTION_DDOT":"0.0000000000000","LAUNCH_DATE":"2020-10-06","RA_OF_ASC_NODE":"278.2442","NORAD_CAT_ID":"46578","ECCENTRICITY":"0.00016360","OBJECT_NAME":"STARLINK-1683","REF_FRAME":"TEME"},{"GP_ID":"197032528","OBJECT_ID":"2020-070AZ","EPOCH":"2022-02-25T21:46:28.194528","CENTER_NAME":"EARTH","MEAN_MOTION":"15.06407213","BSTAR":"0.00033584000000","OBJECT_TYPE":"PAYLOAD","MEAN_ELEMENT_THEORY":"SGP4","REV_AT_EPOCH":"7773","COUNTRY_CODE":"US","EPHEMERIS_TYPE":"0","LAUNCH_DATE":"2020-10-06","RA_OF_ASC_NODE":"293.1967","NORAD_CAT_ID":"46579","ECCENTRICITY":"0.00013400","OBJECT_NAME":"STARLINK-1705","REF_FRAME":"TEME","APOAPSIS":"548.119","FILE":"3323947","ELEMENT_SET_NO":"999","RCS_SIZE":"LARGE","SEMIMAJOR_AXIS":"6925.326","MEAN_MOTION_DOT":"0.00004725","INCLINATION":"53.0536","MEAN_MOTION_DDOT":"0.0000000000000","TIME_SYSTEM":"UTC","TLE_LINE1":"1 46579U 20070AZ  22056.90727077  .00004725  00000-0  33584-3 0  9998","PERIAPSIS":"546.263","TLE_LINE2":"2 46579  53.0536 293.1967 0001340  73.7821 286.3315 15.06407213 77739","CLASSIFICATION_TYPE":"U","SITE":"AFETR","PERIOD":"95.592","MEAN_ANOMALY":"286.3315","ARG_OF_PERICENTER":"73.7821","DECAY_DATE":null},{"CENTER_NAME":"EARTH","EPOCH":"2022-02-25T22:50:09.986208","OBJECT_ID":"2020-070BA","GP_ID":"197031776","COUNTRY_CODE":"US","EPHEMERIS_TYPE":"0","REV_AT_EPOCH":"7774","OBJECT_TYPE":"PAYLOAD","MEAN_ELEMENT_THEORY":"SGP4","BSTAR":"0.00028498000000","MEAN_MOTION":"15.06405585","REF_FRAME":"TEME","ECCENTRICITY":"0.00013930","OBJECT_NAME":"STARLINK-1708","NORAD_CAT_ID":"46580","RA_OF_ASC_NODE":"292.9908","LAUNCH_DATE":"2020-10-06","MEAN_MOTION_DDOT":"0.0000000000000","MEAN_MOTION_DOT":"0.00003966","INCLINATION":"53.0539","RCS_SIZE":"LARGE","SEMIMAJOR_AXIS":"6925.331","ELEMENT_SET_NO":"999","APOAPSIS":"548.161","FILE":"3323947","TIME_SYSTEM":"UTC","TLE_LINE2":"2 46580  53.0539 292.9908 0001393  69.1533 290.9605 15.06405585 77747","PERIAPSIS":"546.232","TLE_LINE1":"1 46580U 20070BA  22056.95150447  .00003966  00000-0  28498-3 0  9990","PERIOD":"95.592","SITE":"AFETR","CLASSIFICATION_TYPE":"U","DECAY_DATE":null,"ARG_OF_PERICENTER":"69.1533","MEAN_ANOMALY":"290.9605"},{"SITE":"AFETR","CLASSIFICATION_TYPE":"U","PERIOD":"95.592","ARG_OF_PERICENTER":"70.5913","MEAN_ANOMALY":"289.5247","DECAY_DATE":null,"TIME_SYSTEM":"UTC","TLE_LINE1":"1 46581U 20070BB  22056.91694926  .00002096  00000-0  15955-3 0  9999","TLE_LINE2":"2 46581  53.0563 288.1515 0001581  70.5913 289.5247 15.06406376 77805","PERIAPSIS":"546.099","NORAD_CAT_ID":"46581","LAUNCH_DATE":"2020-10-06","RA_OF_ASC_NODE":"288.1515","REF_FRAME":"TEME","ECCENTRICITY":"0.00015810","OBJECT_NAME":"STARLINK-1712","ELEMENT_SET_NO":"999","APOAPSIS":"548.289","FILE":"3323947","MEAN_MOTION_DDOT":"0.0000000000000","MEAN_MOTION_DOT":"0.00002096","INCLINATION":"53.0563","SEMIMAJOR_AXIS":"6925.329","RCS_SIZE":"LARGE","EPOCH":"2022-02-25T22:00:24.416064","OBJECT_ID":"2020-070BB","GP_ID":"197032026","CENTER_NAME":"EARTH","MEAN_ELEMENT_THEORY":"SGP4","OBJECT_TYPE":"PAYLOAD","BSTAR":"0.00015955000000","MEAN_MOTION":"15.06406376","EPHEMERIS_TYPE":"0","COUNTRY_CODE":"US","REV_AT_EPOCH":"7780"},{"TLE_LINE1":"1 46582U 20070BC  22056.90221765  .00006177  00000-0  43302-3 0  9997","PERIAPSIS":"546.127","TLE_LINE2":"2 46582  53.0567 288.1821 0001508  79.0219 281.0939 15.06413913 77802","TIME_SYSTEM":"UTC","MEAN_ANOMALY":"281.0939","ARG_OF_PERICENTER":"79.0219","DECAY_DATE":null,"SITE":"AFETR","CLASSIFICATION_TYPE":"U","PERIOD":"95.591","MEAN_MOTION":"15.06413913","OBJECT_TYPE":"PAYLOAD","MEAN_ELEMENT_THEORY":"SGP4","BSTAR":"0.00043302000000","EPHEMERIS_TYPE":"0","COUNTRY_CODE":"US","REV_AT_EPOCH":"7780","GP_ID":"197032273","EPOCH":"2022-02-25T21:39:11.604960","OBJECT_ID":"2020-070BC","CENTER_NAME":"EARTH","FILE":"3323947","APOAPSIS":"548.215","ELEMENT_SET_NO":"999","INCLINATION":"53.0567","MEAN_MOTION_DOT":"0.00006177","SEMIMAJOR_AXIS":"6925.306","RCS_SIZE":"LARGE","MEAN_MOTION_DDOT":"0.0000000000000","RA_OF_ASC_NODE":"288.1821","LAUNCH_DATE":"2020-10-06","NORAD_CAT_ID":"46582","OBJECT_NAME":"STARLINK-1728","ECCENTRICITY":"0.00015080","REF_FRAME":"TEME"}];
